{
  "type": "FeatureCollection",
  "features": [
    {
      "type": "Feature",
      "properties": {
        "norad_id": 24876,
        "name": "GPS BIIR-2  (PRN 13)",
        "group": "gps-ops",
        "lat": 55.551482019274744,
        "lon": -154.80484910334255,
        "alt_km": 19973.244328255074,
        "timestamp": "2025-12-10T20:49:52.812284+00:00",
        "meta_object_name": "GPS BIIR-2  (PRN 13)",
        "meta_object_id": "1997-035A",
        "meta_epoch": "2025-12-09T17:47:19.154688",
        "meta_mean_motion": 2.00563565,
        "meta_eccentricity": 0.00967483,
        "meta_inclination": 55.8939,
        "meta_ra_of_asc_node": 105.9862,
        "meta_arg_of_pericenter": 57.0132,
        "meta_mean_anomaly": 303.8899,
        "meta_ephemeris_type": 0,
        "meta_classification_type": "U",
        "meta_norad_cat_id": 24876,
        "meta_element_set_no": 999,
        "meta_rev_at_epoch": 20815,
        "meta_bstar": 0,
        "meta_mean_motion_dot": 2.2e-07,
        "meta_mean_motion_ddot": 0,
        "tle_line1": "1 24876U 97035A   25343.74119392  .00000022  00000+0  00000+0 0  9996",
        "tle_line2": "2 24876  55.8939 105.9862 0096748  57.0132 303.8899  2.00563565208159"
      },
      "geometry": {
        "type": "Point",
        "coordinates": [
          -154.80484910334255,
          55.551482019274744
        ]
      }
    },
    {
      "type": "Feature",
      "properties": {
        "norad_id": 26360,
        "name": "GPS BIIR-4  (PRN 20)",
        "group": "gps-ops",
        "lat": -4.9502345976963005,
        "lon": -149.60021346358678,
        "alt_km": 20124.325661994186,
        "timestamp": "2025-12-10T20:49:52.812310+00:00",
        "meta_object_name": "GPS BIIR-4  (PRN 20)",
        "meta_object_id": "2000-025A",
        "meta_epoch": "2025-12-10T14:19:49.835712",
        "meta_mean_motion": 2.00567833,
        "meta_eccentricity": 0.00388571,
        "meta_inclination": 55.0439,
        "meta_ra_of_asc_node": 26.9245,
        "meta_arg_of_pericenter": 241.7871,
        "meta_mean_anomaly": 109.039,
        "meta_ephemeris_type": 0,
        "meta_classification_type": "U",
        "meta_norad_cat_id": 26360,
        "meta_element_set_no": 999,
        "meta_rev_at_epoch": 18748,
        "meta_bstar": 0,
        "meta_mean_motion_dot": -9.7e-07,
        "meta_mean_motion_ddot": 0,
        "tle_line1": "1 26360U 00025A   25344.59710458 -.00000097  00000+0  00000+0 0  9996",
        "tle_line2": "2 26360  55.0439  26.9245 0038857 241.7871 109.0390  2.00567833187488"
      },
      "geometry": {
        "type": "Point",
        "coordinates": [
          -149.60021346358678,
          -4.9502345976963005
        ]
      }
    },
    {
      "type": "Feature",
      "properties": {
        "norad_id": 26407,
        "name": "GPS BIIR-5  (PRN 22)",
        "group": "gps-ops",
        "lat": 22.0953053901578,
        "lon": -120.76647271830338,
        "alt_km": 20149.219684604446,
        "timestamp": "2025-12-10T20:49:52.812327+00:00",
        "meta_object_name": "GPS BIIR-5  (PRN 22)",
        "meta_object_id": "2000-040A",
        "meta_epoch": "2025-12-09T20:17:06.584640",
        "meta_mean_motion": 2.00567874,
        "meta_eccentricity": 0.01261721,
        "meta_inclination": 54.8914,
        "meta_ra_of_asc_node": 222.6841,
        "meta_arg_of_pericenter": 301.7549,
        "meta_mean_anomaly": 65.7518,
        "meta_ephemeris_type": 0,
        "meta_classification_type": "U",
        "meta_norad_cat_id": 26407,
        "meta_element_set_no": 999,
        "meta_rev_at_epoch": 18615,
        "meta_bstar": 0,
        "meta_mean_motion_dot": 2e-08,
        "meta_mean_motion_ddot": 0,
        "tle_line1": "1 26407U 00040A   25343.84521510  .00000002  00000+0  00000+0 0  9996",
        "tle_line2": "2 26407  54.8914 222.6841 0126172 301.7549  65.7518  2.00567874186157"
      },
      "geometry": {
        "type": "Point",
        "coordinates": [
          -120.76647271830338,
          22.0953053901578
        ]
      }
    },
    {
      "type": "Feature",
      "properties": {
        "norad_id": 27663,
        "name": "GPS BIIR-8  (PRN 16)",
        "group": "gps-ops",
        "lat": 13.501694532287328,
        "lon": 32.75492753573855,
        "alt_km": 20319.52534633487,
        "timestamp": "2025-12-10T20:49:52.812340+00:00",
        "meta_object_name": "GPS BIIR-8  (PRN 16)",
        "meta_object_id": "2003-005A",
        "meta_epoch": "2025-12-10T07:26:08.155104",
        "meta_mean_motion": 2.00571007,
        "meta_eccentricity": 0.0147361,
        "meta_inclination": 54.9239,
        "meta_ra_of_asc_node": 222.475,
        "meta_arg_of_pericenter": 51.7666,
        "meta_mean_anomaly": 67.0717,
        "meta_ephemeris_type": 0,
        "meta_classification_type": "U",
        "meta_norad_cat_id": 27663,
        "meta_element_set_no": 999,
        "meta_rev_at_epoch": 16752,
        "meta_bstar": 0,
        "meta_mean_motion_dot": 1e-08,
        "meta_mean_motion_ddot": 0,
        "tle_line1": "1 27663U 03005A   25344.30981661  .00000001  00000+0  00000+0 0  9993",
        "tle_line2": "2 27663  54.9239 222.4750 0147361  51.7666  67.0717  2.00571007167524"
      },
      "geometry": {
        "type": "Point",
        "coordinates": [
          32.75492753573855,
          13.501694532287328
        ]
      }
    },
    {
      "type": "Feature",
      "properties": {
        "norad_id": 28190,
        "name": "GPS BIIR-11 (PRN 19)",
        "group": "gps-ops",
        "lat": -30.863240445068193,
        "lon": -101.45558672809229,
        "alt_km": 20443.82238246464,
        "timestamp": "2025-12-10T20:49:52.812353+00:00",
        "meta_object_name": "GPS BIIR-11 (PRN 19)",
        "meta_object_id": "2004-009A",
        "meta_epoch": "2025-12-09T02:41:41.936352",
        "meta_mean_motion": 2.00560834,
        "meta_eccentricity": 0.01083049,
        "meta_inclination": 54.989,
        "meta_ra_of_asc_node": 283.3651,
        "meta_arg_of_pericenter": 167.5856,
        "meta_mean_anomaly": 325.415,
        "meta_ephemeris_type": 0,
        "meta_classification_type": "U",
        "meta_norad_cat_id": 28190,
        "meta_element_set_no": 999,
        "meta_rev_at_epoch": 15913,
        "meta_bstar": 0,
        "meta_mean_motion_dot": -5.3e-07,
        "meta_mean_motion_ddot": 0,
        "tle_line1": "1 28190U 04009A   25343.11229093 -.00000053  00000+0  00000+0 0  9994",
        "tle_line2": "2 28190  54.9890 283.3651 0108304 167.5856 325.4150  2.00560834159136"
      },
      "geometry": {
        "type": "Point",
        "coordinates": [
          -101.45558672809229,
          -30.863240445068193
        ]
      }
    },
    {
      "type": "Feature",
      "properties": {
        "norad_id": 28474,
        "name": "GPS BIIR-13 (PRN 02)",
        "group": "gps-ops",
        "lat": 18.397204357936946,
        "lon": -14.177139346451334,
        "alt_km": 20044.03880598718,
        "timestamp": "2025-12-10T20:49:52.812365+00:00",
        "meta_object_name": "GPS BIIR-13 (PRN 02)",
        "meta_object_id": "2004-045A",
        "meta_epoch": "2025-12-09T20:12:55.228896",
        "meta_mean_motion": 2.00569305,
        "meta_eccentricity": 0.01707094,
        "meta_inclination": 55.2421,
        "meta_ra_of_asc_node": 332.5223,
        "meta_arg_of_pericenter": 309.1205,
        "meta_mean_anomaly": 51.0041,
        "meta_ephemeris_type": 0,
        "meta_classification_type": "U",
        "meta_norad_cat_id": 28474,
        "meta_element_set_no": 999,
        "meta_rev_at_epoch": 15463,
        "meta_bstar": 0,
        "meta_mean_motion_dot": -8.4e-07,
        "meta_mean_motion_ddot": 0,
        "tle_line1": "1 28474U 04045A   25343.84230589 -.00000084  00000+0  00000+0 0  9995",
        "tle_line2": "2 28474  55.2421 332.5223 0170709 309.1205  51.0041  2.00569305154630"
      },
      "geometry": {
        "type": "Point",
        "coordinates": [
          -14.177139346451334,
          18.397204357936946
        ]
      }
    },
    {
      "type": "Feature",
      "properties": {
        "norad_id": 28874,
        "name": "GPS BIIRM-1 (PRN 17)",
        "group": "gps-ops",
        "lat": -15.768338746905844,
        "lon": -90.62026887104888,
        "alt_km": 19942.626279611963,
        "timestamp": "2025-12-10T20:49:52.812376+00:00",
        "meta_object_name": "GPS BIIRM-1 (PRN 17)",
        "meta_object_id": "2005-038A",
        "meta_epoch": "2025-12-10T14:00:21.521952",
        "meta_mean_motion": 2.00578486,
        "meta_eccentricity": 0.01317012,
        "meta_inclination": 55.0338,
        "meta_ra_of_asc_node": 280.7877,
        "meta_arg_of_pericenter": 293.4518,
        "meta_mean_anomaly": 200.7371,
        "meta_ephemeris_type": 0,
        "meta_classification_type": "U",
        "meta_norad_cat_id": 28874,
        "meta_element_set_no": 999,
        "meta_rev_at_epoch": 14805,
        "meta_bstar": 0,
        "meta_mean_motion_dot": -6.4e-07,
        "meta_mean_motion_ddot": 0,
        "tle_line1": "1 28874U 05038A   25344.58358243 -.00000064  00000+0  00000+0 0  9990",
        "tle_line2": "2 28874  55.0338 280.7877 0131701 293.4518 200.7371  2.00578486148057"
      },
      "geometry": {
        "type": "Point",
        "coordinates": [
          -90.62026887104888,
          -15.768338746905844
        ]
      }
    }
  ]
}